#cP2021 10  2  0  0  0.00000000      96 ORBIT IGb14 HLM  IGS
## 2177 518400.00000000   900.00000000 59489 0.0000000000000
+   32   G01G02G03G04G05G06G07G08G09G10G11G12G13G14G15G16G17
+        G18G19G20G21G22G23G24G25G26G27G28G29G30G31G32  0  0
+          0  0  0  0  0  0  0  0  0  0  0  0  0  0  0  0  0
+          0  0  0  0  0  0  0  0  0  0  0  0  0  0  0  0  0
+          0  0  0  0  0  0  0  0  0  0  0  0  0  0  0  0  0
++         2  2  2  2  1  1  2  2  2  2  2  2  2  2  1  2  2
++         2  2  1  2  2  2  2  2  2  2  2  2  2  2  2  0  0
++         0  0  0  0  0  0  0  0  0  0  0  0  0  0  0  0  0
++         0  0  0  0  0  0  0  0  0  0  0  0  0  0  0  0  0
++         0  0  0  0  0  0  0  0  0  0  0  0  0  0  0  0  0
%c G  cc GPS ccc cccc cccc cccc cccc ccccc ccccc ccccc ccccc
%c cc cc ccc ccc cccc cccc cccc cccc ccccc ccccc ccccc ccccc
%f  1.2500000  1.025000000  0.00000000000  0.000000000000000
%f  0.0000000  0.000000000  0.00000000000  0.000000000000000
%i    0    0    0    0      0      0      0      0         0
%i    0    0    0    0      0      0      0      0         0
/* FINAL ORBIT COMBINATION FROM WEIGHTED AVERAGE OF:        
/* cod emr esa gfz grg jpl mit ngs sio                      
/* REFERENCED TO IGS TIME (IGST) AND TO WEIGHTED MEAN POLE: 
/* PCV:IGS14_2175 OL/AL:FES2004  NONE     Y  ORB:CMB CLK:CMB
*  2021 10  2 13 30  0.00000000
PG01  14437.799534  13368.290578 -18273.962919    550.828509  6  6  6  78       
PG02  10224.188550 -14304.260708  20588.280822   -635.416790  4  4  2  86       
PG03  12536.883124  23417.942473   1613.714598   -310.186667  1  5  4  81       
PG04   6161.460821  15773.379572  20447.716004   -204.039156  4  3  4  90       
PG05  -3790.024427 -23694.545975  11042.855272    -56.328910  5  1  2  69       
PG06  22510.407786  -6633.629284  12551.693989     86.124826  5  3  4  90       
PG07  25259.455201   6653.253823   6459.939530    255.632127  5  6  3  83       
PG08  -3022.222663  22246.958480 -13950.505364    -38.623729  6  3  3  62       
PG09  15070.615677   4578.910347  21318.764484   -361.572532  5  4  5  59       
PG10 -15929.366852    409.519376 -21178.049047   -215.413762  5  6  5  81       
PG11  12416.696410 -12405.443300  19918.489611     20.480721  8  5  5  56       
PG12 -10181.075673 -24597.405184    546.666427   -105.747020  6  1     78       
PG13  11410.028407 -22150.883718  -9123.557809    193.795141  6  3  4  94       
PG14  16105.477315   -397.956509 -21125.029356    -10.785259  5  5  5  82       
PG15   -394.791837 -22464.977662 -14289.149143   -116.887739  6  3  4  96       
PG16  -2100.117698  21960.692094  14199.814668   -400.366228  6  5  3  84       
PG17  19608.730725  -8690.826134 -15238.753825    513.296368  8  4  4  82       
PG18 -25696.562818  -5399.241061   4314.319473    315.409064  9  7  5  65       
PG19  20209.553454 -14973.816356  -8537.740076     60.591509  8  4  4 110       
PG20   4489.539153 -18058.969175  19017.545111    518.844982  5  5  3  86       
PG21   6338.219952  14527.362417 -20709.455625    145.661560  5  5  5  56       
PG22   9571.222282  24076.274181  -6147.173974   -499.037873  4  3  6  80       
PG23 -18162.046412 -11309.466160 -15810.649678     50.129078  4  5  5  97       
PG24 -10225.749210 -14736.612516 -19970.314114    246.495550  6  6  3  91       
PG25 -16410.907793 -18747.894286   9319.211558    217.876839  5  4  4  83       
PG26 -10548.201158  12467.312641  20840.854133    140.576746  4  3  3  73       
PG27 -11330.257829  23217.116676  -5426.563130   -200.870847  6  3  4  63       
PG28  12789.367396  -7690.087094 -21440.978121    490.154381  6  6  3 109       
PG29 -12148.207957  -8326.779346  22060.108187   -420.361394  3  4  4  94       
PG30  26169.241538  -1200.537904  -5020.308765   -478.569770  9  6  3  90       
PG31 -21539.358869   7677.988552  13798.268530   -142.843851  5  5  1  56       
PG32 -19347.452799  12389.177547 -13058.843587     -6.037840  5  5  6  27       
*  2021 10  2 13 45  0.00000000
PG01  12327.819235  13332.557800 -19776.109685    550.818700  6  6  5  70       
PG02  12380.340402 -14289.852172  19343.339095   -635.418638  5  3  3  87       
PG03  12356.800360  23548.202580  -1255.021096   -310.199180  2  4  5  76       
PG04   4792.312243  17593.270105  19290.934171   -204.038846  4  3  5  78       
PG05  -2876.483365 -22572.077831  13398.846914    -56.330443  5  3  2  60       
PG06  23782.952412  -6424.062406  10058.918690     86.131930  5  4  4  86       
PG07  24415.709464   6834.337394   9083.446736    255.638330  5  6  3  49       
PG08  -3968.764167  23393.347035 -11615.423721    -38.624437  6  3  4  69       
PG09  13808.487454   6705.672865  21605.594945   -361.572787  5  4  5  59       
PG10 -16990.872415  -1731.599893 -20297.560003   -215.420975  5  6  4  60       
PG11  14600.938349 -12070.193009  18599.149633     20.481617  9  6  6  66       
PG12  -9955.662023 -24615.211953  -2320.567294   -105.751779  6  2     83       
PG13  12145.203489 -22676.534459  -6431.773482    193.799690  6  4  4  65       
PG14  17047.213055   1779.339790 -20303.656441    -10.792265  5  5  5 103       
PG15    492.261800 -23672.142424 -12077.801296   -116.885028  6  4  4  67       
PG16  -2966.357451  20373.139915  16268.849553   -400.371969  6  5  3  85       
PG17  18597.681797  -7047.379636 -17175.869891    513.301420  8  5  4  95       
PG18 -25033.573829  -5574.866546   7082.728317    315.404770  8  8  5  67       
PG19  19675.179238 -14002.477766 -11136.579808     60.596016  8  4  5 110       
PG20   5911.454506 -16316.629669  20144.063385    518.844925  5  5  2  84       
PG21   3802.680685  14646.688169 -21175.294814    145.663257  5  6  5  62       
PG22   8844.818579  23512.063534  -8765.212053   -499.029413  4  4  6  70       
PG23 -18831.051819 -12861.767069 -13704.273303     50.124782  4  6  5  65       
PG24  -7947.487668 -14893.724810 -20845.776794    246.501858  6  5  4 105       
PG25 -16649.704830 -19686.443698   6682.914182    217.882420  6  4  5  71       
PG26 -11834.839792  10399.698563  21303.656473    140.580463  4  3  3  95       
PG27 -11767.175304  23462.989656  -2569.358132   -200.875470  6  3  4  55       
PG28  13767.151634  -5308.573461 -21536.864326    490.147986  6  6  4 112       
PG29 -10638.355416 -10348.542219  21978.385827   -420.366191  3  4  3 101       
PG30  26572.806897   -873.269445  -2267.848582   -478.573059  8  6  3  99       
PG31 -22971.326884   7392.813518  11509.693209   -142.845651  6  4  1  82       
PG32 -18659.924021  10882.131981 -15221.366346     -6.041201  5  5  5  89       
*  2021 10  2 14  0  0.00000000
PG01  10068.565973  13418.940192 -20948.760449    550.808927  6  6  5  83       
PG02  14382.967026 -14377.137829  17783.220436   -635.420152  5  3  3  92       
PG03  12017.965114  23410.933339  -4102.318758   -310.211678  2  4  5  78       
PG04   3596.391958  19353.797396  17801.627845   -204.038619  4  3  5  73       
PG05  -1766.455349 -21283.964884  15520.203684    -56.331469  5  3  2  78       
PG06  24773.459124  -6280.792006   7393.988447     86.139016  5  4  4  81       
PG07  23300.196499   7060.636584  11557.008190    255.644231  4  6  3  96       
PG08  -4725.139269  24342.674379  -9077.215624    -38.625768  6  3  4  85       
PG09  12650.619430   8904.068231  21518.287853   -361.572959  5  4  5  66       
PG10 -18102.240248  -3707.437402 -19066.486674   -215.428060  6  6  4  69       
PG11  16632.226295 -11855.693563  16959.322590     20.482602  9  7  6  75       
PG12  -9587.564666 -24358.168933  -5148.299147   -105.756984  6  2     76       
PG13  12667.154420 -22989.644402  -3628.751543    193.805040  5  5  4  58       
PG14  18045.259086   3806.187510 -19133.333535    -10.799240  5  5  5 105       
PG15   1227.307931 -24680.739201  -9659.083835   -116.882702  6  4  4  77       
PG16  -4010.954930  18634.817007  18047.578469   -400.377604  6  6  2  70       
PG17  17566.910132  -5174.724123 -18807.810591    513.306812  8  5  4 105       
PG18 -24074.541598  -5785.511727   9729.869374    315.400449  6  8  5  82       
PG19  19032.288617 -12773.598307 -13544.491327     60.600219  8  5  5 111       
PG20   7487.148605 -14561.309334  20925.063119    518.844685  5  5  2  89       
PG21   1238.177260  14896.080460 -21253.967834    145.665169  5  6  5  73       
PG22   7917.983925  22754.584290 -11233.149423   -499.021140  4  4  6  82       
PG23 -19445.882324 -14164.525471 -11363.241422     50.120515  4  6  5  61       
PG24  -5598.986706 -15169.885099 -21372.993644    246.508218  6  4  4  94       
PG25 -16780.842470 -20348.997544   3932.532686    217.887963  6  3  5  91       
PG26 -13236.139859   8373.011929  21397.250635    140.584181  4  3  3  85       
PG27 -12032.754256  23443.034474    332.988676   -200.880095  6  4  4  53       
PG28  14863.345914  -2989.929297 -21242.582745    490.141631  6  6  4 110       
PG29  -9259.558202 -12425.588383  21516.783203   -420.371225  3  4  2  95       
PG30  26680.620800   -568.521972    523.115618   -478.576298  8  6  4  88       
PG31 -24146.386888   7185.874136   9026.879843   -142.847563  6  4  1  78       
PG32 -17939.837276   9139.012704 -17117.925226     -6.044692  4  5  5  52       
EOF
